[
    {
        "Altitude(m)": 570313.4225641276,
        "Argument of Periapsis(deg)": -0.03013754771062987,
        "Eccentricity": 0.0,
        "Inclination(deg)": 97.0,
        "Latitude(deg)": 45.260642819696436,
        "Longitude(deg)": -156.058037873381,
        "Mean Anomaly(deg)": 134.4327910255833,
        "RAAN(deg)": 120.00792940482468,
        "Satellite Name": "Starlink Shell 3 1830",
        "Satellite Number": 1830,
        "Semi-Major Axis(m)": 6938478.169268562,
        "Time(s)": 760
    },
    {
        "Altitude(m)": 570174.5644718682,
        "Argument of Periapsis(deg)": -0.030534094391032898,
        "Eccentricity": 0.0,
        "Inclination(deg)": 97.0,
        "Latitude(deg)": 44.643907573916884,
        "Longitude(deg)": -156.2512264437368,
        "Mean Anomaly(deg)": 135.05826722328837,
        "RAAN(deg)": 120.00803373909866,
        "Satellite Name": "Starlink Shell 3 1830",
        "Satellite Number": 1830,
        "Semi-Major Axis(m)": 6938478.169268562,
        "Time(s)": 770
    },
    {
        "Altitude(m)": 570036.3264932606,
        "Argument of Periapsis(deg)": -0.030930641071435925,
        "Eccentricity": 0.0,
        "Inclination(deg)": 97.0,
        "Latitude(deg)": 44.02690150103344,
        "Longitude(deg)": -156.44124472704593,
        "Mean Anomaly(deg)": 135.6837434209934,
        "RAAN(deg)": 120.00813807337268,
        "Satellite Name": "Starlink Shell 3 1830",
        "Satellite Number": 1830,
        "Semi-Major Axis(m)": 6938478.169268562,
        "Time(s)": 780
    },
    {
        "Altitude(m)": 569898.7953691039,
        "Argument of Periapsis(deg)": -0.031327187751838945,
        "Eccentricity": 0.0,
        "Inclination(deg)": 97.0,
        "Latitude(deg)": 43.409632822921,
        "Longitude(deg)": -156.6282232489955,
        "Mean Anomaly(deg)": 136.30921961869845,
        "RAAN(deg)": 120.0082424076467,
        "Satellite Name": "Starlink Shell 3 1830",
        "Satellite Number": 1830,
        "Semi-Major Axis(m)": 6938478.169268562,
        "Time(s)": 790
    },
    {
        "Altitude(m)": 569762.0577507851,
        "Argument of Periapsis(deg)": -0.031723734432241975,
        "Eccentricity": 0.0,
        "Inclination(deg)": 97.0,
        "Latitude(deg)": 42.792109389977114,
        "Longitude(deg)": -156.81228646502976,
        "Mean Anomaly(deg)": 136.93469581640346,
        "RAAN(deg)": 120.0083467419207,
        "Satellite Name": "Starlink Shell 3 1830",
        "Satellite Number": 1830,
        "Semi-Major Axis(m)": 6938478.169268562,
        "Time(s)": 800
    },
    {
        "Altitude(m)": 569626.2001561535,
        "Argument of Periapsis(deg)": -0.032120281112645,
        "Eccentricity": 0.0,
        "Inclination(deg)": 97.0,
        "Latitude(deg)": 42.17433870746164,
        "Longitude(deg)": -156.993552671952,
        "Mean Anomaly(deg)": 137.56017201410853,
        "RAAN(deg)": 120.00845107619472,
        "Satellite Name": "Starlink Shell 3 1830",
        "Satellite Number": 1830,
        "Semi-Major Axis(m)": 6938478.169268562,
        "Time(s)": 810
    },
    {
        "Altitude(m)": 569491.3089254224,
        "Argument of Periapsis(deg)": -0.03251682779304802,
        "Eccentricity": 0.0,
        "Inclination(deg)": 97.0,
        "Latitude(deg)": 41.55632795984838,
        "Longitude(deg)": -157.1721338888816,
        "Mean Anomaly(deg)": 138.1856482118136,
        "RAAN(deg)": 120.00855541046872,
        "Satellite Name": "Starlink Shell 3 1830",
        "Satellite Number": 1830,
        "Semi-Major Axis(m)": 6938478.169268562,
        "Time(s)": 820
    },
    {
        "Altitude(m)": 569357.4701770399,
        "Argument of Periapsis(deg)": -0.032913374473451044,
        "Eccentricity": 0.0,
        "Inclination(deg)": 97.0,
        "Latitude(deg)": 40.93808403335995,
        "Longitude(deg)": -157.34813722302957,
        "Mean Anomaly(deg)": 138.81112440951864,
        "RAAN(deg)": 120.00865974474274,
        "Satellite Name": "Starlink Shell 3 1830",
        "Satellite Number": 1830,
        "Semi-Major Axis(m)": 6938478.169268562,
        "Time(s)": 830
    },
    {
        "Altitude(m)": 569224.7697636009,
        "Argument of Periapsis(deg)": -0.03330992115385407,
        "Eccentricity": 0.0,
        "Inclination(deg)": 97.0,
        "Latitude(deg)": 40.319613536834524,
        "Longitude(deg)": -157.52166469689206,
        "Mean Anomaly(deg)": 139.43660060722368,
        "RAAN(deg)": 120.00876407901674,
        "Satellite Name": "Starlink Shell 3 1830",
        "Satellite Number": 1830,
        "Semi-Major Axis(m)": 6938478.169268562,
        "Time(s)": 840
    },
    {
        "Altitude(m)": 569093.2932278082,
        "Argument of Periapsis(deg)": -0.0337064678342571,
        "Eccentricity": 0.0,
        "Inclination(deg)": 97.0,
        "Latitude(deg)": 39.70092282106414,
        "Longitude(deg)": -157.69281305186365,
        "Mean Anomaly(deg)": 140.06207680492872,
        "RAAN(deg)": 120.00886841329077,
        "Satellite Name": "Starlink Shell 3 1830",
        "Satellite Number": 1830,
        "Semi-Major Axis(m)": 6938478.169268562,
        "Time(s)": 850
    },
    {
        "Altitude(m)": 568963.1257584832,
        "Argument of Periapsis(deg)": -0.03410301451466012,
        "Eccentricity": 0.0,
        "Inclination(deg)": 97.0,
        "Latitude(deg)": 39.08201799673344,
        "Longitude(deg)": -157.8616752111673,
        "Mean Anomaly(deg)": 140.68755300263376,
        "RAAN(deg)": 120.00897274756477,
        "Satellite Name": "Starlink Shell 3 1830",
        "Satellite Number": 1830,
        "Semi-Major Axis(m)": 6938478.169268562,
        "Time(s)": 860
    },
    {
        "Altitude(m)": 568834.3521466968,
        "Argument of Periapsis(deg)": -0.034499561195063144,
        "Eccentricity": 0.0,
        "Inclination(deg)": 97.0,
        "Latitude(deg)": 38.4629049510648,
        "Longitude(deg)": -158.028339201431,
        "Mean Anomaly(deg)": 141.3130292003388,
        "RAAN(deg)": 120.00907708183878,
        "Satellite Name": "Starlink Shell 3 1830",
        "Satellite Number": 1830,
        "Semi-Major Axis(m)": 6938478.169268562,
        "Time(s)": 870
    },
    {
        "Altitude(m)": 568707.0567419864,
        "Argument of Periapsis(deg)": -0.03489610787546617,
        "Eccentricity": 0.0,
        "Inclination(deg)": 97.0,
        "Latitude(deg)": 37.8435893632816,
        "Longitude(deg)": -158.19288957741568,
        "Mean Anomaly(deg)": 141.93850539804382,
        "RAAN(deg)": 120.00918141611278,
        "Satellite Name": "Starlink Shell 3 1830",
        "Satellite Number": 1830,
        "Semi-Major Axis(m)": 6938478.169268562,
        "Time(s)": 880
    },
    {
        "Altitude(m)": 568581.3234087129,
        "Argument of Periapsis(deg)": -0.0352926545558692,
        "Eccentricity": 0.0,
        "Inclination(deg)": 97.0,
        "Latitude(deg)": 37.224076718976384,
        "Longitude(deg)": -158.35540714891889,
        "Mean Anomaly(deg)": 142.56398159574888,
        "RAAN(deg)": 120.00928575038678,
        "Satellite Name": "Starlink Shell 3 1830",
        "Satellite Number": 1830,
        "Semi-Major Axis(m)": 6938478.169268562,
        "Time(s)": 890
    },
    {
        "Altitude(m)": 568457.2354825921,
        "Argument of Periapsis(deg)": -0.035689201236272214,
        "Eccentricity": 0.0,
        "Inclination(deg)": 97.0,
        "Latitude(deg)": 36.60437232347199,
        "Longitude(deg)": -158.51596869214856,
        "Mean Anomaly(deg)": 143.18945779345393,
        "RAAN(deg)": 120.00939008466078,
        "Satellite Name": "Starlink Shell 3 1830",
        "Satellite Number": 1830,
        "Semi-Major Axis(m)": 6938478.169268562,
        "Time(s)": 900
    },
    {
        "Altitude(m)": 568334.875727394,
        "Argument of Periapsis(deg)": -0.036085747916675244,
        "Eccentricity": 0.0,
        "Inclination(deg)": 97.0,
        "Latitude(deg)": 35.98448131425544,
        "Longitude(deg)": -158.67464815964644,
        "Mean Anomaly(deg)": 143.8149339911589,
        "RAAN(deg)": 120.0094944189348,
        "Satellite Name": "Starlink Shell 3 1830",
        "Satellite Number": 1830,
        "Semi-Major Axis(m)": 6938478.169268562,
        "Time(s)": 910
    },
    {
        "Altitude(m)": 568214.3262918411,
        "Argument of Periapsis(deg)": -0.03648229459707827,
        "Eccentricity": 0.0,
        "Inclination(deg)": 97.0,
        "Latitude(deg)": 35.364408672550994,
        "Longitude(deg)": -158.8315163641149,
        "Mean Anomaly(deg)": 144.44041018886406,
        "RAAN(deg)": 120.0095987532088,
        "Satellite Name": "Starlink Shell 3 1830",
        "Satellite Number": 1830,
        "Semi-Major Axis(m)": 6938478.169268562,
        "Time(s)": 920
    },
    {
        "Altitude(m)": 568095.6686667358,
        "Argument of Periapsis(deg)": -0.0368788412774813,
        "Eccentricity": 0.0,
        "Inclination(deg)": 97.0,
        "Latitude(deg)": 34.74415923409939,
        "Longitude(deg)": -158.98664065002987,
        "Mean Anomaly(deg)": 145.06588638656908,
        "RAAN(deg)": 120.00970308748282,
        "Satellite Name": "Starlink Shell 3 1830",
        "Satellite Number": 1830,
        "Semi-Major Axis(m)": 6938478.169268562,
        "Time(s)": 930
    },
    {
        "Altitude(m)": 567978.9836423526,
        "Argument of Periapsis(deg)": -0.037275387957884314,
        "Eccentricity": 0.0,
        "Inclination(deg)": 97.0,
        "Latitude(deg)": 34.12373769920421,
        "Longitude(deg)": -159.1400860668317,
        "Mean Anomaly(deg)": 145.69136258427406,
        "RAAN(deg)": 120.00980742175683,
        "Satellite Name": "Starlink Shell 3 1830",
        "Satellite Number": 1830,
        "Semi-Major Axis(m)": 6938478.169268562,
        "Time(s)": 940
    }
]